{"type": "FeatureCollection", "features": [{"type": "Feature", "properties": {"norad_id": 28890, "name": "BEIJING 1", "group": "dmc", "lat": 53.274678495290026, "lon": 107.5745974514856, "alt_km": 674.1627276688805, "timestamp": "2025-12-17T07:00:46.558335+00:00", "meta": {"OBJECT_NAME": "BEIJING 1", "OBJECT_ID": "2005-043A", "EPOCH": "2025-12-16T22:33:40.899744", "MEAN_MOTION": 14.63370365, "ECCENTRICITY": 0.0015509, "INCLINATION": 98.2647, "RA_OF_ASC_NODE": 118.4562, "ARG_OF_PERICENTER": 128.6809, "MEAN_ANOMALY": 231.5783, "EPHEMERIS_TYPE": 0, "CLASSIFICATION_TYPE": "U", "NORAD_CAT_ID": 28890, "ELEMENT_SET_NO": 999, "REV_AT_EPOCH": 7399, "BSTAR": 6.5607372e-05, "MEAN_MOTION_DOT": 2.91e-06, "MEAN_MOTION_DDOT": 0}, "tle": {"line1": "1 28890U 05043A   25350.94005671  .00000291  00000+0  65607-4 0  9995", "line2": "2 28890  98.2647 118.4562 0015509 128.6809 231.5783 14.63370365 73991"}}, "geometry": {"type": "Point", "coordinates": [107.5745974514856, 53.274678495290026]}}, {"type": "Feature", "properties": {"norad_id": 33320, "name": "HUANJING 1A (HJ-1A)", "group": "dmc", "lat": 48.79421640728808, "lon": -29.433373766233164, "alt_km": 602.0649820860453, "timestamp": "2025-12-17T07:00:46.558360+00:00", "meta": {"OBJECT_NAME": "HUANJING 1A (HJ-1A)", "OBJECT_ID": "2008-041A", "EPOCH": "2025-12-17T00:18:58.960224", "MEAN_MOTION": 14.83410296, "ECCENTRICITY": 0.00198903, "INCLINATION": 97.6538, "RA_OF_ASC_NODE": 339.1336, "ARG_OF_PERICENTER": 21.0207, "MEAN_ANOMALY": 339.182, "EPHEMERIS_TYPE": 0, "CLASSIFICATION_TYPE": "U", "NORAD_CAT_ID": 33320, "ELEMENT_SET_NO": 999, "REV_AT_EPOCH": 93139, "BSTAR": 0.00019127504, "MEAN_MOTION_DOT": 1.524e-05, "MEAN_MOTION_DDOT": 0}, "tle": {"line1": "1 33320U 08041A   25351.01318241  .00001524  00000+0  19128-3 0  9995", "line2": "2 33320  97.6538 339.1336 0019890  21.0207 339.1820 14.83410296931397"}}, "geometry": {"type": "Point", "coordinates": [-29.433373766233164, 48.79421640728808]}}, {"type": "Feature", "properties": {"norad_id": 33321, "name": "HUANJING 1B (HJ-1B)", "group": "dmc", "lat": -78.1425614726076, "lon": 123.34499984120204, "alt_km": 652.8802633758696, "timestamp": "2025-12-17T07:00:46.558376+00:00", "meta": {"OBJECT_NAME": "HUANJING 1B (HJ-1B)", "OBJECT_ID": "2008-041B", "EPOCH": "2025-12-16T23:21:46.190592", "MEAN_MOTION": 14.82832828, "ECCENTRICITY": 0.0038148, "INCLINATION": 97.64, "RA_OF_ASC_NODE": 342.7814, "ARG_OF_PERICENTER": 62.2771, "MEAN_ANOMALY": 298.2305, "EPHEMERIS_TYPE": 0, "CLASSIFICATION_TYPE": "U", "NORAD_CAT_ID": 33321, "ELEMENT_SET_NO": 999, "REV_AT_EPOCH": 93140, "BSTAR": 0.00010502034, "MEAN_MOTION_DOT": 8.09e-06, "MEAN_MOTION_DDOT": 0}, "tle": {"line1": "1 33321U 08041B   25350.97345128  .00000809  00000+0  10502-3 0  9996", "line2": "2 33321  97.6400 342.7814 0038148  62.2771 298.2305 14.82832828931400"}}, "geometry": {"type": "Point", "coordinates": [123.34499984120204, -78.1425614726076]}}, {"type": "Feature", "properties": {"norad_id": 33446, "name": "YAOGAN-4", "group": "dmc", "lat": 9.38942809970887, "lon": 102.665616985099, "alt_km": 629.3866434190759, "timestamp": "2025-12-17T07:00:46.558388+00:00", "meta": {"OBJECT_NAME": "YAOGAN-4", "OBJECT_ID": "2008-061A", "EPOCH": "2025-12-16T18:54:29.509920", "MEAN_MOTION": 14.82694666, "ECCENTRICITY": 0.00133305, "INCLINATION": 97.9187, "RA_OF_ASC_NODE": 280.8474, "ARG_OF_PERICENTER": 309.2264, "MEAN_ANOMALY": 50.7765, "EPHEMERIS_TYPE": 0, "CLASSIFICATION_TYPE": "U", "NORAD_CAT_ID": 33446, "ELEMENT_SET_NO": 999, "REV_AT_EPOCH": 91863, "BSTAR": 0.00016727314, "MEAN_MOTION_DOT": 1.297e-05, "MEAN_MOTION_DDOT": 0}, "tle": {"line1": "1 33446U 08061A   25350.78784155  .00001297  00000+0  16727-3 0  9999", "line2": "2 33446  97.9187 280.8474 0013330 309.2264  50.7765 14.82694666918631"}}, "geometry": {"type": "Point", "coordinates": [102.665616985099, 9.38942809970887]}}, {"type": "Feature", "properties": {"norad_id": 35681, "name": "DEIMOS-1", "group": "dmc", "lat": 6.103418695948037, "lon": -27.486846320095736, "alt_km": 647.8779331765554, "timestamp": "2025-12-17T07:00:46.558400+00:00", "meta": {"OBJECT_NAME": "DEIMOS-1", "OBJECT_ID": "2009-041A", "EPOCH": "2025-12-16T23:42:55.605312", "MEAN_MOTION": 14.74960233, "ECCENTRICITY": 0.00026462, "INCLINATION": 97.7142, "RA_OF_ASC_NODE": 151.3929, "ARG_OF_PERICENTER": 71.8656, "MEAN_ANOMALY": 288.2842, "EPHEMERIS_TYPE": 0, "CLASSIFICATION_TYPE": "U", "NORAD_CAT_ID": 35681, "ELEMENT_SET_NO": 999, "REV_AT_EPOCH": 88002, "BSTAR": 0.0001105053, "MEAN_MOTION_DOT": 6.95e-06, "MEAN_MOTION_DDOT": 0}, "tle": {"line1": "1 35681U 09041A   25350.98814358  .00000695  00000+0  11051-3 0  9998", "line2": "2 35681  97.7142 151.3929 0002646  71.8656 288.2842 14.74960233880027"}}, "geometry": {"type": "Point", "coordinates": [-27.486846320095736, 6.103418695948037]}}, {"type": "Feature", "properties": {"norad_id": 35683, "name": "UK-DMC 2", "group": "dmc", "lat": -19.7299562286549, "lon": -56.77275453663247, "alt_km": 648.6283853931172, "timestamp": "2025-12-17T07:00:46.558411+00:00", "meta": {"OBJECT_NAME": "UK-DMC 2", "OBJECT_ID": "2009-041C", "EPOCH": "2025-12-16T21:58:23.988288", "MEAN_MOTION": 14.75631208, "ECCENTRICITY": 0.00014685, "INCLINATION": 97.8554, "RA_OF_ASC_NODE": 125.6995, "ARG_OF_PERICENTER": 94.3451, "MEAN_ANOMALY": 265.7927, "EPHEMERIS_TYPE": 0, "CLASSIFICATION_TYPE": "U", "NORAD_CAT_ID": 35683, "ELEMENT_SET_NO": 999, "REV_AT_EPOCH": 87968, "BSTAR": 0.00010730491, "MEAN_MOTION_DOT": 6.83e-06, "MEAN_MOTION_DDOT": 0}, "tle": {"line1": "1 35683U 09041C   25350.91555542  .00000683  00000+0  10730-3 0  9990", "line2": "2 35683  97.8554 125.6995 0001468  94.3451 265.7927 14.75631208879680"}}, "geometry": {"type": "Point", "coordinates": [-56.77275453663247, -19.7299562286549]}}, {"type": "Feature", "properties": {"norad_id": 40715, "name": "DMC3-FM1", "group": "dmc", "lat": 48.74846950007598, "lon": -150.51967121582655, "alt_km": 608.571647685666, "timestamp": "2025-12-17T07:00:46.558422+00:00", "meta": {"OBJECT_NAME": "DMC3-FM1", "OBJECT_ID": "2015-032A", "EPOCH": "2025-12-16T19:28:29.780256", "MEAN_MOTION": 14.85450275, "ECCENTRICITY": 0.00043529, "INCLINATION": 97.6694, "RA_OF_ASC_NODE": 217.8556, "ARG_OF_PERICENTER": 306.3409, "MEAN_ANOMALY": 53.7404, "EPHEMERIS_TYPE": 0, "CLASSIFICATION_TYPE": "U", "NORAD_CAT_ID": 40715, "ELEMENT_SET_NO": 999, "REV_AT_EPOCH": 56283, "BSTAR": 0.00013456286, "MEAN_MOTION_DOT": 1.109e-05, "MEAN_MOTION_DDOT": 0}, "tle": {"line1": "1 40715U 15032A   25350.81145579  .00001109  00000+0  13456-3 0  9995", "line2": "2 40715  97.6694 217.8556 0004352 306.3409  53.7404 14.85450275562831"}}, "geometry": {"type": "Point", "coordinates": [-150.51967121582655, 48.74846950007598]}}, {"type": "Feature", "properties": {"norad_id": 40716, "name": "DMC3-FM2", "group": "dmc", "lat": -69.47429937878877, "lon": -119.12197288336652, "alt_km": 616.170439174638, "timestamp": "2025-12-17T07:00:46.558432+00:00", "meta": {"OBJECT_NAME": "DMC3-FM2", "OBJECT_ID": "2015-032B", "EPOCH": "2025-12-16T21:37:53.078592", "MEAN_MOTION": 14.8544846, "ECCENTRICITY": 0.00050451, "INCLINATION": 97.6752, "RA_OF_ASC_NODE": 219.389, "ARG_OF_PERICENTER": 311.3852, "MEAN_ANOMALY": 48.6929, "EPHEMERIS_TYPE": 0, "CLASSIFICATION_TYPE": "U", "NORAD_CAT_ID": 40716, "ELEMENT_SET_NO": 999, "REV_AT_EPOCH": 56284, "BSTAR": 3.5664861e-05, "MEAN_MOTION_DOT": 2.56e-06, "MEAN_MOTION_DDOT": 0}, "tle": {"line1": "1 40716U 15032B   25350.90130878  .00000256  00000+0  35665-4 0  9991", "line2": "2 40716  97.6752 219.3890 0005045 311.3852  48.6929 14.85448460562842"}}, "geometry": {"type": "Point", "coordinates": [-119.12197288336652, -69.47429937878877]}}, {"type": "Feature", "properties": {"norad_id": 40717, "name": "DMC3-FM3", "group": "dmc", "lat": 6.4657657522935885, "lon": 42.27797634809335, "alt_km": 616.6768878801859, "timestamp": "2025-12-17T07:00:46.558443+00:00", "meta": {"OBJECT_NAME": "DMC3-FM3", "OBJECT_ID": "2015-032C", "EPOCH": "2025-12-16T20:32:04.398144", "MEAN_MOTION": 14.85434954, "ECCENTRICITY": 0.00044303, "INCLINATION": 97.6805, "RA_OF_ASC_NODE": 220.9805, "ARG_OF_PERICENTER": 312.865, "MEAN_ANOMALY": 47.2193, "EPHEMERIS_TYPE": 0, "CLASSIFICATION_TYPE": "U", "NORAD_CAT_ID": 40717, "ELEMENT_SET_NO": 999, "REV_AT_EPOCH": 56284, "BSTAR": 3.8775349e-05, "MEAN_MOTION_DOT": 2.83e-06, "MEAN_MOTION_DDOT": 0}, "tle": {"line1": "1 40717U 15032C   25350.85560646  .00000283  00000+0  38775-4 0  9991", "line2": "2 40717  97.6805 220.9805 0004430 312.8650  47.2193 14.85434954562846"}}, "geometry": {"type": "Point", "coordinates": [42.27797634809335, 6.4657657522935885]}}]}